satname,norad_id,inclination_deg,eccentricity,mean_motion_rev_per_day,perigee_km,apogee_km,l1,l2
STARLINK-1351,45697,53.0425,0.0001228,15.67305056,365.7893223038909,367.4458340282881,1 45697U 20035AS  26167.52662821  .00039290  00000+0  36139-3 0  9992,2 45697  53.0425 259.6341 0001228 169.3338 190.7704 15.67305056334802
STARLINK-1400,45700,53.0417,0.000239,15.65989809,368.7806838870292,372.00648150555844,1 45700U 20035AV  26167.80336227  .00039804  00000+0  38587-3 0  9996,2 45700  53.0417 260.9220 0002390  41.8167 318.3030 15.65989809334806
STARLINK-1403,45701,53.1566,0.0001795,15.34818166,460.23293715010186,462.68835270463023,1 45701U 20035AW  26167.55593576  .00042639  00000+0  12493-2 0  9998,2 45701  53.1566 296.6009 0001795 289.1559  70.9249 15.34818166334293
STARLINK-1407,45703,53.0261,0.0007075,15.75535937,338.35126293950634,347.8618225524924,1 45703U 20035AY  26167.35883211  .00064301  00000+0  41445-3 0  9996,2 45703  53.0261 189.0730 0007075  49.7815 310.3822 15.75535937335773
STARLINK-1411,45706,53.0228,0.0010877,16.02719879,259.6623415659915,274.11793360109095,1 45706U 20035BB  26167.79285918  .00637708  20076-3  10349-2 0  9991,2 45706  53.0228 206.6900 0010877  10.0267 350.0978 16.02719879335559
STARLINK-1423,45710,53.0432,0.000449,15.70207447,355.27896150047764,361.3282851802369,1 45710U 20035BF  26167.52049803  .00047690  00000+0  38796-3 0  9991,2 45710  53.0432 258.4962 0004490 100.2534 259.8989 15.70207447334809
STARLINK-1433,45711,53.0421,0.000392,15.6973674,357.009019266663,362.29144445644124,1 45711U 20035BG  26167.82694506  .00047194  00000+0  39160-3 0  9996,2 45711  53.0421 255.6121 0003920 109.1668 250.9773 15.69736740334878
STARLINK-1434,45712,53.0497,0.0001674,15.35279841,458.9446971901207,461.2341353942966,1 45712U 20035BH  26167.59385205  .00048601  00000+0  14004-2 0  9997,2 45712  53.0497 278.8653 0001674  38.7916 321.3205 15.35279841334540
STARLINK-1465,45731,53.0443,0.0002594,15.69124278,359.6551471660896,363.151620717279,1 45731U 20038B   26167.52381456  .00050069  00000+0  42571-3 0  9990,2 45731  53.0443 102.7238 0002594  96.0801 264.0510 15.69124278331794
STARLINK-1471,45735,53.0455,0.0002293,15.5400467,403.49209081337995,406.60285921362174,1 45735U 20038F   26167.84762420  .00022261  00000+0  34450-3 0  9993,2 45735  53.0455  25.0853 0002293 145.3186 214.7973 15.54004670332929
STARLINK-1480,45741,53.049,0.0006216,15.66191871,365.6186040001621,374.00765560153195,1 45741U 20038M   26167.52586342  .00042818  00000+0  41090-3 0  9990,2 45741  53.0490  96.6185 0006216  61.9232 298.2410 15.66191871331892
STARLINK-1500,45744,53.0359,0.0001628,15.39642919,446.05325832478957,448.2755764662943,1 45744U 20038Q   26167.49578743  .00018217  00000+0  46392-3 0  9991,2 45744  53.0359  87.4839 0001628 146.4478 213.6629 15.39642919332018
STARLINK-1504,45746,53.0202,0.0002695,15.59700643,386.69915474127356,390.34638435706074,1 45746U 20038S   26167.89305985  .00031444  00000+0  39112-3 0  9992,2 45746  53.0202  21.2000 0002695 132.6882 227.4357 15.59700643332960
STARLINK-1506,45747,53.0744,0.0001893,15.28666972,478.49803284521204,481.09444636972603,1 45747U 20038T   26167.85362264  .00030967  00000+0  11039-2 0  9998,2 45747  53.0744 102.7758 0001893 181.5685 178.5308 15.28666972331840
STARLINK-1464,45751,53.047,0.0004699,15.5462413,400.05888558681636,406.4320288200961,1 45751U 20038X   26167.48544721  .00022715  00000+0  34347-3 0  9992,2 45751  53.0470  90.6094 0004699  66.1327 294.0175 15.54624130331976
STARLINK-1477,45754,53.0458,0.0001642,15.19353158,506.66363923783865,508.92497907976576,1 45754U 20038AA  26167.59561101  .00027733  00000+0  13057-2 0  9997,2 45754  53.0458 121.6544 0001642  28.9910 331.1175 15.19353158331545
STARLINK-1478,45755,53.0456,0.0004298,15.69393192,357.7371625971173,363.52980970701356,1 45755U 20038AB  26167.04092067  .00054276  00000+0  45563-3 0  9998,2 45755  53.0456  76.6359 0004298 106.8897 253.2591 15.69393192332114
STARLINK-1493,45759,53.0463,0.0006471,15.65965456,366.0965292942801,374.8305681244192,1 45759U 20038AF  26167.84782682  .00044769  00000+0  43315-3 0  9998,2 45759  53.0463  82.5670 0006471  59.5252 300.6401 15.65965456332102
STARLINK-1502,45764,53.0443,0.0004724,15.63283634,374.98783488696336,381.3712027339361,1 45764U 20038AL  26167.08564571  .00094042  00000+0  99971-3 0  9993,2 45764  53.0443  90.2979 0004724  31.9367 328.1932 15.63283634331948
STARLINK-1470,45772,53.043,0.0003711,15.36012996,455.3764137731778,460.45013028507674,1 45772U 20038AU  26167.43611963  .00042507  00000+0  11986-2 0  9997,2 45772  53.0430  73.0801 0003711  66.9146 293.2247 15.36012996332217
STARLINK-1482,45773,53.1579,0.0004565,15.38641801,447.00758532768396,453.24178824772207,1 45773U 20038AV  26167.49680599  .00045797  00000+0  11850-2 0  9999,2 45773  53.1579  89.1673 0004565  61.3159 298.8304 15.38641801332017
STARLINK-1496,45780,53.0456,6.67e-05,15.69757133,359.1424706740363,360.04128370625403,1 45780U 20038BC  26167.85195488  .00055341  00000+0  45766-3 0  9995,2 45780  53.0456  56.6368 0000667 217.0015 143.0956 15.69757133332461
STARLINK-1513,45786,53.1606,0.0001375,15.31705826,469.7809100789673,471.66434647674305,1 45786U 20038BJ  26167.51559774  .00001100  00000+0  47212-4 0  9999,2 45786  53.1606  91.4457 0001375  95.6960 264.4198 15.31705826331980
STARLINK-1522,46027,53.0639,0.0002684,15.13512494,523.6452635073065,527.351134882233,1 46027U 20055A   26167.34749144  .00021154  00000+0  11807-2 0  9990,2 46027  53.0639  40.2915 0002684  74.2551 285.8738 15.13512494323804
STARLINK-1523,46028,53.1625,3.36e-05,15.3100122,472.5936220002932,473.05400656701295,1 46028U 20055B   26167.86206185  .00039338  00000+0  13007-2 0  9998,2 46028  53.1625  26.0196 0000336 123.0479 237.0554 15.31001220324084
STARLINK-1526,46029,53.1583,0.0001393,15.31595505,470.0974151340606,472.00559905213686,1 46029U 20055C   26167.91668980  .00144026  00000+0  45790-2 0  9995,2 46029  53.1583  25.8096 0001393  88.0313 229.3481 15.31595505  5853
STARLINK-1555,46032,53.1611,0.0002123,15.30185248,473.8041405905733,476.7140925816766,1 46032U 20055F   26167.32139375 -.00001757  00000+0 -47196-4 0  9994,2 46032  53.1611  28.5617 0002123  98.9297 261.1944 15.30185248323995
STARLINK-1556,46033,53.1579,1.89e-05,15.31145889,472.2627943983498,472.521744404733,1 46033U 20055G   26167.89180785  .00240340  00000+0  76405-2 0  9992,2 46033  53.1579  25.9240 0000189 139.7643 220.3372 15.31145889324059
STARLINK-1557,46034,53.1581,0.0001096,15.30195815,474.47643634711585,475.9786938597872,1 46034U 20055H   26167.89553576  .00005411  00000+0  19471-3 0  9994,2 46034  53.1581  25.9093 0001096  91.7552 268.3574 15.30195815324052
STARLINK-1558,46035,53.1584,0.0001222,15.30185483,474.42092998759836,476.09589982700254,1 46035U 20055J   26166.85788077  .00002124  00000+0  83867-4 0  9995,2 46035  53.1584  30.7290 0001222 105.7605 254.3531 15.30185483323928
STARLINK-1560,46036,53.1611,0.0001257,15.30206174,474.33517099225355,476.0580990681001,1 46036U 20055K   26167.75858564  .00001190  00000+0  52283-4 0  9995,2 46036  53.1611  26.5565 0001257 109.6302 250.4835 15.30206174324064
STARLINK-1569,46039,53.1604,0.0001023,15.30358244,474.04157248812135,475.44367165879794,1 46039U 20055N   26167.31814983  .00047036  00000+0  15824-2 0  9994,2 46039  53.1604  28.5824 0001023 146.8075 213.2990 15.30358244323985
STARLINK-1582,46043,53.1596,0.0001183,15.31708823,469.9034754108543,471.52391348516176,1 46043U 20055S   26167.84911563  .00002085  00000+0  78911-4 0  9992,2 46043  53.1596  25.4233 0001183  94.7145 265.3992 15.31708823324070
STARLINK-1591,46045,53.1618,6.19e-05,15.3034079,474.3705316115811,475.2189245595182,1 46045U 20055U   26167.35074189  .00020985  00000+0  71554-3 0  9998,2 46045  53.1618  28.4364 0000619 102.2465 257.8605 15.30340790323977
STARLINK-1524,46047,53.1611,0.0001038,15.31706829,470.00872708856696,471.4305497266996,1 46047U 20055W   26167.75319191  .00002120  00000+0  80028-4 0  9997,2 46047  53.1611  13.1701 0001038  93.7805 266.3315 15.31706829324240
STARLINK-1527,46048,53.1601,9.69e-05,15.31699773,470.07701565451225,471.40432814732685,1 46048U 20055X   26167.74853634  .00002662  00000+0  97509-4 0  9995,2 46048  53.1601  13.1723 0000969  87.3779 272.7333 15.31699773324212
STARLINK-1540,46051,53.1579,9.94e-05,15.31706931,470.03855803358147,471.40011067285195,1 46051U 20055AA  26167.86508017  .00003502  00000+0  12452-3 0  9991,2 46051  53.1579  12.8407 0000994  88.6840 271.4276 15.31706931324279
STARLINK-1541,46052,53.1564,0.0006367,15.87783787,304.24034382321133,312.755104480947,1 46052U 20055AB  26167.91668980  .00255084  00000+0  90419-3 0  9997,2 46052  53.1564 352.8604 0006367 284.6747 213.0074 15.87783787  6005
STARLINK-1543,46053,53.1607,0.0001644,15.31698673,469.6179949181169,471.86990697478814,1 46053U 20055AC  26167.83708183  .00003848  00000+0  13570-3 0  9991,2 46053  53.1607  12.7763 0001644  82.0805 278.0382 15.31698673324262
STARLINK-1548,46054,53.1608,0.0001132,15.31713198,469.92536453459707,471.47594137922624,1 46054U 20055AD  26167.85107868  .00000461  00000+0  26610-4 0  9995,2 46054  53.1608  12.7856 0001132  82.2882 277.8248 15.31713198324264
STARLINK-1554,46055,53.1601,0.0001239,15.31710593,469.8598462785285,471.5569901731651,1 46055U 20055AE  26167.83242852  .00004972  00000+0  17181-3 0  9990,2 46055  53.1601  12.8180 0001239  71.0686 289.0449 15.31710593324269
STARLINK-1564,46058,53.1625,0.0001384,15.30189159,474.2989304759867,476.1959472886683,1 46058U 20055AH  26167.76547498  .00001346  00000+0  57591-4 0  9991,2 46058  53.1625  14.1720 0001384  88.5108 271.6051 15.30189159324236
STARLINK-1570,46059,53.159,9.4e-05,15.31719253,470.0388145929119,471.3263926783966,1 46059U 20055AJ  26167.86037133  .00003585  00000+0  12717-3 0  9990,2 46059  53.1590  12.5688 0000940  95.8359 264.2750 15.31719253324227
